STARLINK-1470           
1 45772U 20038AU  26068.60892913  .00054678  00000+0  19687-2 0  9990
2 45772  53.0480 174.6971 0002444  12.8687 347.2373 15.28074860317065
STARLINK-34192          
1 64014U 25101W   26068.18424442  .00024880  00000+0  91102-3 0  9992
2 64014  42.9995   1.1861 0000882 275.0953  84.9798 15.27565149 46977
